NAVSTAR 77 (USA 289)    
1 43873U 18109A   23324.68758319  .00000097  00000+0  00000+0 0  9999
2 43873  55.2214 129.3081 0027438 189.9690 169.7292  2.00571042 36226
